{
"type": "FeatureCollection",
"name": "El_Aburrido",
"crs": { "type": "name", "properties": { "name": "urn:ogc:def:crs:OGC:1.3:CRS84" } },
"features": [
{ "type": "Feature", "properties": { "nombre": "El Aburrido", "area_ha": 879.856, "Shape_Leng": 19684.676023600001, "Shape_Area": 8472704.9161799997 }, "geometry": { "type": "Polygon", "coordinates": [ [ [ -76.43932825960772, 8.339683435642629 ], [ -76.440753295199059, 8.338930823325361 ], [ -76.441977539303025, 8.338672157841282 ], [ -76.44289548717046, 8.338414603513678 ], [ -76.443504716261458, 8.33749720999451 ], [ -76.443192083821671, 8.335769680282787 ], [ -76.442626263035166, 8.33460234444167 ], [ -76.442419088454585, 8.333789606570829 ], [ -76.442363569499932, 8.332569572349067 ], [ -76.44286697017229, 8.330635701627338 ], [ -76.442180431990536, 8.329377350407222 ], [ -76.442650093297189, 8.328956843539165 ], [ -76.444440860726687, 8.3276192217029 ], [ -76.445092796742912, 8.326869358473182 ], [ -76.445316667534939, 8.326492845979118 ], [ -76.447177737218098, 8.326129353556077 ], [ -76.448611350704937, 8.326569828841556 ], [ -76.448883124097264, 8.327460244243188 ], [ -76.451303856843666, 8.328610230549438 ], [ -76.452024120054375, 8.3297664228544 ], [ -76.452468985553395, 8.32905167196402 ], [ -76.453009925228102, 8.330119377243541 ], [ -76.453535026027581, 8.330897646421942 ], [ -76.453590662077929, 8.330860554932817 ], [ -76.453727378020247, 8.330769410965843 ], [ -76.453818520932344, 8.330769411182162 ], [ -76.453864092981462, 8.330678266985066 ], [ -76.45390966533239, 8.33067826752813 ], [ -76.453909665173072, 8.330632695159609 ], [ -76.453955236609659, 8.330632695707477 ], [ -76.453955237362052, 8.330587124236374 ], [ -76.454046380946309, 8.330541552047306 ], [ -76.45404638078557, 8.330495980588244 ], [ -76.454046380619062, 8.330450408225852 ], [ -76.454046381361636, 8.330404835855473 ], [ -76.454046381207419, 8.330359264396158 ], [ -76.454091953347401, 8.330313692572819 ], [ -76.454137525310628, 8.330222548389953 ], [ -76.454137525146578, 8.330176976031364 ], [ -76.454137524691276, 8.330040261664815 ], [ -76.454137524535938, 8.329994689305883 ], [ -76.454137525289653, 8.329949116938966 ], [ -76.454137524997734, 8.32985797312392 ], [ -76.454137524859007, 8.329812401667894 ], [ -76.454183096031883, 8.329766828967873 ], [ -76.454183095900135, 8.329721258417074 ], [ -76.454183095754701, 8.329675686059701 ], [ -76.454228667542935, 8.329538970450534 ], [ -76.454228668307806, 8.329493398087076 ], [ -76.454274240358771, 8.329447826290728 ], [ -76.454274240215796, 8.329402253937156 ], [ -76.454319812399163, 8.329402254493342 ], [ -76.454319812125021, 8.329311111596745 ], [ -76.454365384140687, 8.329265538899232 ], [ -76.454410956153723, 8.329219967103942 ], [ -76.454410956013675, 8.329174395659662 ], [ -76.454547671535792, 8.329174395498978 ], [ -76.454638814564419, 8.329083250995573 ], [ -76.454775530571865, 8.328992107003291 ], [ -76.454821102499167, 8.328946535192598 ], [ -76.454912246513032, 8.32890096389257 ], [ -76.455003389592406, 8.32885539258797 ], [ -76.455003390299922, 8.32880982025989 ], [ -76.455094534242221, 8.328764248035922 ], [ -76.455185678164838, 8.328718676702744 ], [ -76.455276822051914, 8.328673104453872 ], [ -76.455322393649936, 8.328581960318157 ], [ -76.455413537944366, 8.328445245252741 ], [ -76.45541353771695, 8.328399672951203 ], [ -76.455504681271421, 8.328308529296084 ], [ -76.45550468103994, 8.328262956998607 ], [ -76.455550253250379, 8.328126241475866 ], [ -76.455595824768608, 8.328035098261624 ], [ -76.455595824539586, 8.327989525967951 ], [ -76.455595825002916, 8.327898382275693 ], [ -76.455595824780417, 8.327852809981763 ], [ -76.45564139649575, 8.327807238167205 ], [ -76.455641397179207, 8.327761665867364 ], [ -76.455686968672367, 8.327670523570394 ], [ -76.45568696935706, 8.327624951272453 ], [ -76.45568696913702, 8.327579378982325 ], [ -76.455686968927111, 8.327533807595358 ], [ -76.455732540818772, 8.327533807174015 ], [ -76.455732540597822, 8.327488234885875 ], [ -76.455732541293841, 8.327442663492997 ], [ -76.455778112739054, 8.327351519401574 ], [ -76.455778112521514, 8.327305947115253 ], [ -76.455823685297219, 8.327305947589545 ], [ -76.455823685084482, 8.327260376208541 ], [ -76.455869255815202, 8.327214804413364 ], [ -76.455869255593569, 8.3271692321311 ], [ -76.455869256281034, 8.327123659840849 ], [ -76.455914827901836, 8.327078088040896 ], [ -76.455914827689384, 8.327032516663778 ], [ -76.455960400195465, 8.326986943953738 ], [ -76.456005971567592, 8.326895799877533 ], [ -76.456005972268088, 8.326850229399737 ], [ -76.456051544065318, 8.326850228974017 ], [ -76.456097115637633, 8.32680465717414 ], [ -76.456142688106283, 8.326759085365342 ], [ -76.45618825965748, 8.326713513563426 ], [ -76.456233831867181, 8.326622369486563 ], [ -76.456279402720284, 8.326622369053299 ], [ -76.4563249751467, 8.326576797240428 ], [ -76.456370546905006, 8.32657679769417 ], [ -76.456416118653223, 8.326576797239419 ], [ -76.456416119305473, 8.326531224973948 ], [ -76.456461691054187, 8.326531225419355 ], [ -76.456507262792798, 8.326531224956268 ], [ -76.45659840717839, 8.326531224909711 ], [ -76.456643978918464, 8.326531225334127 ], [ -76.456689549741583, 8.326531224857955 ], [ -76.456780694117839, 8.326531225672651 ], [ -76.456826265841357, 8.326531225172836 ], [ -76.456871837570645, 8.326531225571017 ], [ -76.456917410196738, 8.326531225052806 ], [ -76.45696298192172, 8.326531225440494 ], [ -76.457008553636598, 8.326531224919689 ], [ -76.457145268784188, 8.326531225132301 ], [ -76.457190840498384, 8.326531225493753 ], [ -76.457236413109342, 8.32653122493881 ], [ -76.457281984819232, 8.326531225289768 ], [ -76.457327556526934, 8.326531225635479 ], [ -76.457373129131454, 8.326531225064794 ], [ -76.457373128767912, 8.326485652852455 ], [ -76.457418701372902, 8.326485653181924 ], [ -76.457509843847816, 8.326485652945591 ], [ -76.457646560336926, 8.326440081679481 ], [ -76.457737703686576, 8.326440081387094 ], [ -76.457874419687954, 8.326348937870582 ], [ -76.457965563002801, 8.326348938437603 ], [ -76.458011134656985, 8.326348938713254 ], [ -76.458102278857837, 8.326348938337645 ], [ -76.458102279325246, 8.32630336615159 ], [ -76.458147850967663, 8.326303366413645 ], [ -76.458238994691811, 8.32625779383911 ], [ -76.458284567229356, 8.326257794079677 ], [ -76.458284566773074, 8.326212221909993 ], [ -76.458375710017322, 8.326212222395515 ], [ -76.45842128163622, 8.326212222630408 ], [ -76.458466853684584, 8.326166650691023 ], [ -76.458512425714446, 8.326121077847374 ], [ -76.458557997741664, 8.326075505905946 ], [ -76.458557997707985, 8.325984363390292 ], [ -76.458557998139895, 8.325938791225141 ], [ -76.458603570147233, 8.325893219288924 ], [ -76.458694713648086, 8.325756503262332 ], [ -76.458785857164074, 8.325710931541808 ], [ -76.458831429118604, 8.325665359600519 ], [ -76.458877000644506, 8.325665358905606 ], [ -76.458968145012136, 8.325619787152304 ], [ -76.458968144514913, 8.325574215917067 ], [ -76.4590137169386, 8.32557421610607 ], [ -76.4590137173372, 8.325528643961743 ], [ -76.459104860743935, 8.325483072204046 ], [ -76.45915043315054, 8.325483072381626 ], [ -76.459287148381435, 8.325391928643437 ], [ -76.45933272023224, 8.325346356682704 ], [ -76.459378291697377, 8.325346355945195 ], [ -76.459378292064557, 8.325300783817713 ], [ -76.459378291534989, 8.3252552126013 ], [ -76.459423864268459, 8.325209640632709 ], [ -76.459515007897878, 8.325118497611557 ], [ -76.459560579692791, 8.325072925647833 ], [ -76.459606150570252, 8.325027353691004 ], [ -76.459651722892289, 8.325027352929222 ], [ -76.459697295006208, 8.324936208847346 ], [ -76.459742867321282, 8.324936208982638 ], [ -76.459834011038069, 8.324936209245383 ], [ -76.459879583346677, 8.324936209364951 ], [ -76.459925155069541, 8.324890637384835 ], [ -76.459970727368528, 8.324890637496054 ], [ -76.46001629785161, 8.324890637617838 ], [ -76.460061870146262, 8.324890637718568 ], [ -76.460107441828313, 8.324845064824938 ], [ -76.460153014113359, 8.324845064917332 ], [ -76.460198585785335, 8.324799492922841 ], [ -76.460244158060789, 8.324799493006903 ], [ -76.460289730334068, 8.324799493085719 ], [ -76.460335301698322, 8.324799493167214 ], [ -76.460380873967296, 8.32479949323554 ], [ -76.460426444699976, 8.324753922138845 ], [ -76.460472016959343, 8.324753922198836 ], [ -76.460563161082874, 8.324662778166033 ], [ -76.460608733325174, 8.324662778214606 ], [ -76.460608732675354, 8.324617206152068 ], [ -76.460699877142915, 8.324617206237814 ], [ -76.460745449373462, 8.32461720627281 ], [ -76.460836592247091, 8.324571634283153 ], [ -76.460836591575188, 8.324526062231243 ], [ -76.460882163788654, 8.324526062254824 ], [ -76.460927735999988, 8.324526062273153 ], [ -76.460973307523545, 8.324480490240729 ], [ -76.460973307972665, 8.324389346133636 ], [ -76.461018880163792, 8.32438934614796 ], [ -76.461064452352772, 8.32438934615703 ], [ -76.461110023852598, 8.324343775024833 ], [ -76.461155596240815, 8.324298202980462 ], [ -76.461201167711579, 8.324252630942986 ], [ -76.461246739171798, 8.324207058904502 ], [ -76.461246739376605, 8.324161486863449 ], [ -76.461292310823154, 8.324115914826029 ], [ -76.461292311034967, 8.324070343690206 ], [ -76.461337883173954, 8.32407034368293 ], [ -76.46138345479703, 8.323979199608578 ], [ -76.461429026921138, 8.323979199595129 ], [ -76.461474598524831, 8.323888056426156 ], [ -76.461520170634017, 8.323888056406544 ], [ -76.461520171012836, 8.323796912349085 ], [ -76.461565743296688, 8.323751340301852 ], [ -76.461611314663116, 8.323705768261533 ], [ -76.461656886018986, 8.323660196220189 ], [ -76.46165688620232, 8.323614624197564 ], [ -76.461656886387857, 8.32356905217485 ], [ -76.461702457734873, 8.323523481039887 ], [ -76.461702457919472, 8.323477909019164 ], [ -76.461702458106245, 8.323432336998358 ], [ -76.461748030151767, 8.323432336974122 ], [ -76.461748029802408, 8.323295620925579 ], [ -76.461748029992592, 8.323250048906594 ], [ -76.461793602201908, 8.323204476868845 ], [ -76.461793602391168, 8.323158904851852 ], [ -76.461793601675737, 8.323113332842679 ], [ -76.461839173884144, 8.323067762614553 ], [ -76.461884746253503, 8.322976618565921 ], [ -76.461930317514941, 8.322931046539287 ], [ -76.461930317701402, 8.32288547452826 ], [ -76.461975890041586, 8.322794330485751 ], [ -76.461975890229297, 8.32274875847663 ], [ -76.461975889712349, 8.322657615369289 ], [ -76.462021461655027, 8.322657615350318 ], [ -76.462067032872355, 8.322612043328959 ], [ -76.46206703305819, 8.322566471323823 ], [ -76.462067033246242, 8.322520899318601 ], [ -76.46206703272199, 8.322429755315815 ], [ -76.46211260482319, 8.322384183293842 ], [ -76.462112605014667, 8.322338611290444 ], [ -76.46211260520829, 8.322293039286956 ], [ -76.46211260450518, 8.322247468194536 ], [ -76.462158176586513, 8.322201896177786 ], [ -76.462158176978463, 8.322110752174545 ], [ -76.462158177177713, 8.322065180172796 ], [ -76.462203749043013, 8.322065180160934 ], [ -76.462203749239151, 8.322019608161265 ], [ -76.462203748530598, 8.321974036169415 ], [ -76.462203748731099, 8.321928464169572 ], [ -76.46224932098329, 8.321837321066576 ], [ -76.462294892817837, 8.321837321055034 ], [ -76.462294893014288, 8.32179174905926 ], [ -76.462294893212913, 8.321746177063398 ], [ -76.462294892506875, 8.32170060507536 ], [ -76.462294892709863, 8.321655033079331 ], [ -76.46229489291504, 8.321609461083215 ], [ -76.46229489312239, 8.321563889087015 ], [ -76.462294893331915, 8.321518317090728 ], [ -76.46234046533371, 8.321472745094862 ], [ -76.46234046464339, 8.321427174011717 ], [ -76.462386036839206, 8.321336030024611 ], [ -76.462431608609123, 8.321336030021111 ], [ -76.462477181283759, 8.321336030004476 ], [ -76.462522752142462, 8.321336029998397 ], [ -76.462568323905899, 8.321336029979165 ], [ -76.462613895667175, 8.32133602995469 ], [ -76.462659468333143, 8.32133602991706 ], [ -76.4627050400901, 8.321336029882096 ], [ -76.462750611844882, 8.321336029841888 ], [ -76.462796183605448, 8.32133603069969 ], [ -76.462841756107977, 8.321381602611776 ], [ -76.462932898706114, 8.321381602498242 ], [ -76.462978471362263, 8.321381602421743 ], [ -76.463024042977864, 8.321427174309868 ], [ -76.463069614728099, 8.32142717422863 ], [ -76.463069614596137, 8.321472745285105 ], [ -76.463160758787183, 8.321563889005199 ], [ -76.463251903028535, 8.321655033589911 ], [ -76.463251902936562, 8.321700605540554 ], [ -76.463343045490589, 8.321746177248595 ], [ -76.463343046320389, 8.321791749186829 ], [ -76.463388618028205, 8.321837320995504 ], [ -76.463388617952845, 8.321882892036086 ], [ -76.463434189678708, 8.321928463832846 ], [ -76.463525334122025, 8.321974036355661 ], [ -76.463525334077019, 8.322019608292734 ], [ -76.463570905834644, 8.322065180060536 ], [ -76.463616477610813, 8.322110752721935 ], [ -76.463662050296492, 8.322156324462519 ], [ -76.463662050276056, 8.322201896392771 ], [ -76.46366205025781, 8.322247468322935 ], [ -76.463662050233793, 8.322293039349775 ], [ -76.46370762203918, 8.322384183009623 ], [ -76.463707622034931, 8.322429754937287 ], [ -76.463707622032857, 8.322475326864863 ], [ -76.463707622040928, 8.322520899695593 ], [ -76.463707622047679, 8.322612043550325 ], [ -76.463753193008017, 8.322657615267202 ], [ -76.463753193014185, 8.322703186288956 ], [ -76.463798764899423, 8.322748757986037 ], [ -76.463798764923197, 8.322794329908694 ], [ -76.463798764949132, 8.322839901831268 ], [ -76.463798764985199, 8.322885474656996 ], [ -76.463798765015511, 8.322931046579399 ], [ -76.463798765047983, 8.322976618501716 ], [ -76.463798765082657, 8.323022190423952 ], [ -76.463844337023289, 8.323067762097878 ], [ -76.463844337059655, 8.323113333114543 ], [ -76.463844337106138, 8.323158905034358 ], [ -76.463844337154796, 8.323204476954091 ], [ -76.463889909136384, 8.32325004951486 ], [ -76.463889909194691, 8.323295621432258 ], [ -76.463981053196619, 8.323386765617119 ], [ -76.46398105327205, 8.323432337529939 ], [ -76.463981053349656, 8.323477909442676 ], [ -76.464026625377457, 8.323523481064504 ], [ -76.464026624549888, 8.323569052079581 ], [ -76.464026624730934, 8.323660195900134 ], [ -76.464072196799691, 8.3237057684088 ], [ -76.464072196900943, 8.323751340316701 ], [ -76.464072197004398, 8.323796912224514 ], [ -76.464072197109999, 8.323842484132264 ], [ -76.464072197217803, 8.323888056039907 ], [ -76.464072196525123, 8.323979198959622 ], [ -76.464072196639449, 8.324024770867009 ], [ -76.464072196763922, 8.324070343677555 ], [ -76.464072196882611, 8.324115915584777 ], [ -76.464072197126555, 8.324207059398962 ], [ -76.464072197251795, 8.324252631305926 ], [ -76.464117768505929, 8.32429820288265 ], [ -76.464163339638432, 8.324298203450487 ], [ -76.464163339778594, 8.324343775352956 ], [ -76.464163339913, 8.324389346352104 ], [ -76.464163340204237, 8.324480490156624 ], [ -76.464208911509914, 8.324526062610548 ], [ -76.464208911666262, 8.324571634510432 ], [ -76.464254483725114, 8.32457163414365 ], [ -76.464300056130142, 8.32466277846572 ], [ -76.464300056303614, 8.324708350361021 ], [ -76.464300055572394, 8.324753922264158 ], [ -76.464345627823235, 8.324799492867971 ], [ -76.46439120010055, 8.324845065268597 ], [ -76.464391200293335, 8.324890637159251 ], [ -76.464391199581399, 8.324936209057725 ], [ -76.464436771681832, 8.324936209555897 ], [ -76.464436771884266, 8.324981781444199 ], [ -76.464436772295628, 8.325072925220558 ], [ -76.464482343717151, 8.325118497600803 ], [ -76.464573487034698, 8.325118497658293 ], [ -76.464573487261703, 8.32516406953979 ], [ -76.464573486576072, 8.325209640525845 ], [ -76.464619058691653, 8.325209640086836 ], [ -76.464710203171478, 8.325255211971106 ], [ -76.464801347029237, 8.325346356607149 ], [ -76.464801347293601, 8.325391928477391 ], [ -76.464846918512634, 8.325391928011397 ], [ -76.46484691878446, 8.32543749987939 ], [ -76.464892491200729, 8.325483072167055 ], [ -76.464938062720734, 8.32552864445298 ], [ -76.464983633632883, 8.325619787695096 ], [ -76.465029205776602, 8.325619787189407 ], [ -76.46512035037992, 8.325665358920077 ], [ -76.465165921623509, 8.325665359307623 ], [ -76.465165921945427, 8.325710931159964 ], [ -76.465257066015113, 8.325802075602867 ], [ -76.465257065788492, 8.325893219306225 ], [ -76.465302638307591, 8.325938791504726 ], [ -76.465348209930411, 8.325984363701489 ], [ -76.465348210280808, 8.326029934641344 ], [ -76.465393780641065, 8.326029934090037 ], [ -76.465393781006867, 8.326075505930882 ], [ -76.465439353033815, 8.326166649944614 ], [ -76.465439352512533, 8.326212222694199 ], [ -76.465484924576842, 8.326303366691342 ], [ -76.46548492535797, 8.326394510363279 ], [ -76.465484924836971, 8.326440081303806 ], [ -76.465484925232985, 8.32648565313956 ], [ -76.465484925124684, 8.32657679681874 ], [ -76.465484924628313, 8.326622369565397 ], [ -76.465484925033039, 8.326667941400826 ], [ -76.465484924533087, 8.326713513244082 ], [ -76.465484925353451, 8.32680465691449 ], [ -76.465484924867965, 8.326850229660719 ], [ -76.465393781227007, 8.326850229074218 ], [ -76.465393780717221, 8.326895800018217 ], [ -76.465393781124476, 8.326941371857448 ], [ -76.465348209655104, 8.327032516150394 ], [ -76.46530263776576, 8.327078088603182 ], [ -76.4652570663647, 8.327078088298427 ], [ -76.4652114940546, 8.327078087996345 ], [ -76.465211493542512, 8.327123659851811 ], [ -76.465165921624603, 8.3271692322995 ], [ -76.465120350206462, 8.327169231983314 ], [ -76.465074777887239, 8.327169232573052 ], [ -76.465029205557911, 8.327169232254302 ], [ -76.465029205935906, 8.32721480411033 ], [ -76.464983633607076, 8.327214804691732 ], [ -76.464846919117704, 8.327305947407995 ], [ -76.464801347119774, 8.327351518936082 ], [ -76.464755775119229, 8.327397091366397 ], [ -76.464755774569511, 8.327442663242895 ], [ -76.464755774928847, 8.327488235111385 ], [ -76.46471020255531, 8.327488235674281 ], [ -76.464710202911533, 8.32753380754485 ], [ -76.464664631230988, 8.32762495094663 ], [ -76.464664630681597, 8.327670522827024 ], [ -76.464664631041273, 8.327716094699417 ], [ -76.46466463049623, 8.327761666579642 ], [ -76.464664630860256, 8.327807238451861 ], [ -76.464664631226469, 8.327852810323998 ], [ -76.464664630687963, 8.327898382203969 ], [ -76.464664631058525, 8.327943954075934 ], [ -76.464664630524382, 8.327989525955738 ], [ -76.464664630899307, 8.328035097827533 ], [ -76.464664631284364, 8.328080670602496 ], [ -76.464664630748814, 8.328126241578788 ], [ -76.464664630607047, 8.328217385329721 ], [ -76.464664630992857, 8.32826295720109 ], [ -76.464619058907758, 8.328308529663701 ], [ -76.464619059292659, 8.328354101537068 ], [ -76.46461905877284, 8.328399673418263 ], [ -76.464619059162089, 8.328445245291453 ], [ -76.464619058646647, 8.328490817172487 ], [ -76.464619059032316, 8.328536388142268 ], [ -76.464573486921097, 8.328581960614258 ], [ -76.464527915698227, 8.328627532174067 ], [ -76.464527916087803, 8.328673104051157 ], [ -76.464527915974557, 8.328764248716261 ], [ -76.464482343824926, 8.328809820289216 ], [ -76.464436771664722, 8.328855391861174 ], [ -76.464436772062555, 8.328900964645399 ], [ -76.464436771539795, 8.328946535630992 ], [ -76.464436772330473, 8.329037679392551 ], [ -76.464436771822207, 8.329083251281121 ], [ -76.464436772222982, 8.329128823161689 ], [ -76.464436771719079, 8.32917439505009 ], [ -76.46443677212423, 8.329219966930502 ], [ -76.46443677163262, 8.329265539721971 ], [ -76.464436772042149, 8.329311111602197 ], [ -76.464436771952862, 8.329402254467078 ], [ -76.464436772368913, 8.329447826347048 ], [ -76.464436771880258, 8.329493398234854 ], [ -76.464436772300658, 8.329538970114656 ], [ -76.464436771816366, 8.329584542002292 ], [ -76.464436772241129, 8.329630113881924 ], [ -76.464436771769144, 8.329675686672628 ], [ -76.464436772198269, 8.329721258552089 ], [ -76.464436771714745, 8.329766829536148 ], [ -76.464436772148233, 8.329812401415436 ], [ -76.46443677211488, 8.329903545181683 ], [ -76.46443677164801, 8.32994911706864 ], [ -76.464436772090224, 8.329994688947592 ], [ -76.464436771627717, 8.330040260834375 ], [ -76.464436772082237, 8.330085833616392 ], [ -76.464436771624108, 8.330131405503009 ], [ -76.464436772067074, 8.330176976478382 ], [ -76.464482344325248, 8.330222548606926 ], [ -76.464482343878942, 8.330268120491125 ], [ -76.464482344341704, 8.330313692367316 ], [ -76.464482343899761, 8.330359264251344 ], [ -76.464527915758651, 8.33045040824517 ], [ -76.464527916235411, 8.330495980118858 ], [ -76.464527915807494, 8.330541552000383 ], [ -76.464573486738374, 8.330541552232674 ], [ -76.464573487224797, 8.33058712410403 ], [ -76.464573486798571, 8.33063269507999 ], [ -76.464573487289343, 8.330678266951175 ], [ -76.464573486875423, 8.330723838830197 ], [ -76.46457348737853, 8.330769411604466 ], [ -76.464619058836334, 8.330814983689464 ], [ -76.464619059341132, 8.330860555558147 ], [ -76.464619058543491, 8.330951699311104 ], [ -76.464619059054812, 8.330997271179532 ], [ -76.464619058653497, 8.331042842152559 ], [ -76.464619059169195, 8.331088414020817 ], [ -76.464664631207796, 8.331179557948596 ], [ -76.464664630828423, 8.331225129822357 ], [ -76.464664630991081, 8.331316274464944 ], [ -76.464664630618273, 8.331361846338467 ], [ -76.46466463115452, 8.331407418203966 ], [ -76.464664630778103, 8.331452989174053 ], [ -76.464664631318712, 8.331498561039396 ], [ -76.464664630600652, 8.331589705688884 ], [ -76.464664631147798, 8.331635277553957 ], [ -76.464664630790253, 8.331680849426867 ], [ -76.464664631341748, 8.331726421291773 ], [ -76.464664630988551, 8.331771993164514 ], [ -76.464710202962735, 8.331771993314746 ], [ -76.464710202617013, 8.331817565185244 ], [ -76.464710203172402, 8.331863136144491 ], [ -76.464710202831029, 8.331908708014817 ], [ -76.464710202491844, 8.331954279885055 ], [ -76.464755775060226, 8.331999851881454 ], [ -76.464755774738649, 8.332045424652614 ], [ -76.464755775318181, 8.332090996512511 ], [ -76.464801347325093, 8.332090996637103 ], [ -76.464801347005206, 8.33213656850268 ], [ -76.464846918702861, 8.332182140483186 ], [ -76.464846919299532, 8.332227712338502 ], [ -76.464892491317997, 8.332227712446103 ], [ -76.464892491007291, 8.332273283403861 ], [ -76.464938063028882, 8.332273283504071 ], [ -76.464938062733609, 8.332318855362816 ], [ -76.46498363385146, 8.332318855463519 ], [ -76.464983633563648, 8.332364427320016 ], [ -76.464983633901468, 8.332455571024836 ], [ -76.464983633620193, 8.332501142881076 ], [ -76.465029205663939, 8.332501142959952 ], [ -76.465074777705524, 8.332501143033577 ], [ -76.465074778343919, 8.332546714877484 ], [ -76.465074778085551, 8.332592287632487 ], [ -76.465120349612093, 8.332683430492214 ], [ -76.465120350264499, 8.332729002333618 ], [ -76.465120349762074, 8.332820146032024 ], [ -76.465120349514123, 8.332865717881099 ], [ -76.465120350183213, 8.332911290625393 ], [ -76.465165921793712, 8.333002434362452 ], [ -76.465165921559787, 8.333048006209024 ], [ -76.465165922226959, 8.333093577144346 ], [ -76.465165921997382, 8.333139148990746 ], [ -76.465165921770009, 8.333184720837066 ], [ -76.465165921552753, 8.333230293586549 ], [ -76.465165922015771, 8.333321437270829 ], [ -76.465165921797109, 8.333367009116806 ], [ -76.465165921580621, 8.333412580962698 ], [ -76.465165922281173, 8.333458153703811 ], [ -76.465165922061075, 8.333503724646297 ], [ -76.465165921643361, 8.333594868337483 ], [ -76.465211493605224, 8.33364044018675 ], [ -76.465211494313991, 8.33368601202204 ], [ -76.465211494118066, 8.333731583865173 ], [ -76.465211493932273, 8.333777156611456 ], [ -76.465211493740725, 8.33382272845442 ], [ -76.465211493551323, 8.333868300297295 ], [ -76.465211494271003, 8.333913872132161 ], [ -76.465302637573629, 8.333959443041145 ], [ -76.465302638308273, 8.334005014871511 ], [ -76.465302638146142, 8.33405058761296 ], [ -76.46530263797824, 8.334096159451088 ], [ -76.465302637812513, 8.334141731289131 ], [ -76.465348209873468, 8.334187303089177 ], [ -76.465348209717405, 8.334232874924885 ], [ -76.465393781038131, 8.334232874887507 ], [ -76.4653937808975, 8.334278447624204 ], [ -76.465393780751086, 8.334324019457577 ], [ -76.465393780598902, 8.334369590387636 ], [ -76.46543935270347, 8.33441516216161 ], [ -76.465439352568907, 8.334460733992566 ], [ -76.465439353343413, 8.334506305815511 ], [ -76.465439353221157, 8.334551878549533 ], [ -76.465439353093132, 8.334597450380231 ], [ -76.46543935296728, 8.334643022210852 ], [ -76.465439352843603, 8.334688594041381 ], [ -76.465439352722129, 8.334734165871829 ], [ -76.465439352602814, 8.334779737702192 ], [ -76.465439353392583, 8.334825309524536 ], [ -76.465439353164854, 8.334916453184851 ], [ -76.465439353054279, 8.334962025014871 ], [ -76.465439352945864, 8.335007596844804 ], [ -76.465439352847596, 8.335053169577893 ], [ -76.465439352743559, 8.335098741407659 ], [ -76.465439352534034, 8.335189884163698 ], [ -76.465439353343442, 8.335235455985277 ], [ -76.465439353256073, 8.335281028717938 ], [ -76.465439353162935, 8.33532660054728 ], [ -76.465439353071972, 8.335372172376534 ], [ -76.465439352983182, 8.335417744205706 ], [ -76.465348209876367, 8.33550888806495 ], [ -76.465348209783556, 8.335554459898194 ], [ -76.465348209684933, 8.335600030828109 ], [ -76.465348209604429, 8.335645603564416 ], [ -76.46534821034092, 8.335736747222368 ], [ -76.465348210258995, 8.335782319055186 ], [ -76.465348210179243, 8.335827890887915 ], [ -76.46534821003425, 8.335919035456357 ], [ -76.465302637530044, 8.335964607411086 ], [ -76.465302638352668, 8.336010178334476 ], [ -76.465257065834791, 8.336055750290276 ], [ -76.465257065757527, 8.336101322126822 ], [ -76.465257065682451, 8.336146893963278 ], [ -76.465257065617521, 8.33619246670289 ], [ -76.465211494054657, 8.336192465914293 ], [ -76.465211493986615, 8.336238038655981 ], [ -76.465165921509396, 8.336238037872208 ], [ -76.465165922345122, 8.336283610608058 ], [ -76.465120349706098, 8.336374754409558 ], [ -76.465120349620264, 8.33642032534876 ], [ -76.465120349544563, 8.336465897191111 ], [ -76.46512035037793, 8.336511469025449 ], [ -76.465074777795948, 8.336557040991741 ], [ -76.465074777721483, 8.336602612836003 ], [ -76.465074777657179, 8.336648185583414 ], [ -76.465074777587091, 8.336693757427518 ], [ -76.465029205892066, 8.336739329391085 ], [ -76.46502920582104, 8.336784901237165 ], [ -76.465029205744216, 8.336830472179926 ], [ -76.464983634032407, 8.336876044146647 ], [ -76.464983633895002, 8.336967187842541 ], [ -76.464983633837534, 8.337012760593597 ], [ -76.464983633774295, 8.33705833244133 ], [ -76.464983633713231, 8.337103904288977 ], [ -76.464983633654342, 8.33714947613654 ], [ -76.46498363359764, 8.337195047984036 ], [ -76.464983633535141, 8.337240618928174 ], [ -76.464983634397669, 8.337286191670806 ], [ -76.46498363434749, 8.337331763518026 ], [ -76.4649836342995, 8.337377335365165 ], [ -76.464983634210071, 8.337468479059183 ], [ -76.464983634168632, 8.337514050906064 ], [ -76.46498363413734, 8.337559623656098 ], [ -76.46498363410025, 8.337605195502809 ], [ -76.464938063275099, 8.33760519564504 ], [ -76.464892490588483, 8.337650767648832 ], [ -76.464846918782271, 8.337696337837189 ], [ -76.464846918743788, 8.337741910593371 ], [ -76.464801346939822, 8.337787482589279 ], [ -76.464801346892457, 8.337833054444214 ], [ -76.464755775125255, 8.337833054584173 ], [ -76.464710203300129, 8.337878626578055 ], [ -76.464710203246511, 8.337924198437147 ], [ -76.464664630500792, 8.337969770440017 ], [ -76.464664631353159, 8.338015342293172 ], [ -76.464619058651394, 8.338015342433932 ], [ -76.464573486791409, 8.338060914426844 ], [ -76.464573486722671, 8.338106485388847 ], [ -76.464527915819801, 8.338106485507581 ], [ -76.464527915755909, 8.338152057374895 ], [ -76.46448234393867, 8.338152057498464 ], [ -76.46448234376858, 8.338186197107685 ], [ -76.465035290206401, 8.338810892714212 ], [ -76.466649624078926, 8.339696323615003 ], [ -76.466922448546896, 8.340854132316121 ], [ -76.46831038163441, 8.340658511342838 ], [ -76.469810872006008, 8.340469214104237 ], [ -76.470406688857466, 8.340066077180607 ], [ -76.47148025575639, 8.340372378530013 ], [ -76.472436868130927, 8.339824820983008 ], [ -76.473368862384689, 8.339291355403919 ], [ -76.474189156046705, 8.339655930421165 ], [ -76.474827162495885, 8.340612939486332 ], [ -76.47560188522931, 8.340886371347706 ], [ -76.476467750640225, 8.34143323303959 ], [ -76.476422179008722, 8.342663674461129 ], [ -76.476422178534236, 8.343575112334516 ], [ -76.476422178934698, 8.344486550173857 ], [ -76.476376607393121, 8.345625847253666 ], [ -76.4761943195317, 8.346628428895116 ], [ -76.475784172050837, 8.347448723154281 ], [ -76.475601884798522, 8.348815880613637 ], [ -76.476057603833567, 8.34968174608211 ], [ -76.476103175493932, 8.350502040329335 ], [ -76.475966459772522, 8.351459049490302 ], [ -76.475556312755273, 8.351823624131107 ], [ -76.473824581053961, 8.35177805324548 ], [ -76.472047277027329, 8.351413477529171 ], [ -76.469950971306176, 8.350821043162597 ], [ -76.467900234688003, 8.350684327206189 ], [ -76.467763519762727, 8.351778053019894 ], [ -76.468264810844403, 8.353737644694778 ], [ -76.468247000666551, 8.355640269507662 ], [ -76.468857245238169, 8.356517529277319 ], [ -76.469905399094117, 8.356790960376415 ], [ -76.469814254630549, 8.357839113862694 ], [ -76.469449679799737, 8.359115127446136 ], [ -76.469312964267417, 8.360072137216825 ], [ -76.468674957848691, 8.360163280291646 ], [ -76.46821923920848, 8.359570846628772 ], [ -76.468036951088109, 8.358477119980424 ], [ -76.467581231731359, 8.357109964633539 ], [ -76.466259647187073, 8.355606091349438 ], [ -76.465484925033962, 8.354922513097488 ], [ -76.465257066343113, 8.354102219219554 ], [ -76.46498363385399, 8.353509783922593 ], [ -76.46434562756167, 8.353099637479611 ], [ -76.463707622174596, 8.352826206009004 ], [ -76.462806011578522, 8.351038339722869 ], [ -76.462035032741241, 8.350321021453803 ], [ -76.462346861868767, 8.348218749137567 ], [ -76.46183917425796, 8.347950014261738 ], [ -76.461064451733847, 8.347175292056262 ], [ -76.461571600574629, 8.346044012906674 ], [ -76.459602547173517, 8.346051270410637 ], [ -76.459335032292316, 8.346319676186868 ], [ -76.457816794933393, 8.347216666707322 ], [ -76.457731921820979, 8.348464940177065 ], [ -76.457380522387595, 8.350249035343033 ], [ -76.45658160162121, 8.352034777502805 ], [ -76.455326233670164, 8.351415412309995 ], [ -76.454520037516616, 8.351240093342321 ], [ -76.453087646169337, 8.351156212698756 ], [ -76.452903034386509, 8.349641502854427 ], [ -76.453345605003747, 8.348302774841983 ], [ -76.453754034927911, 8.347906173704935 ], [ -76.4536112671681, 8.347656329882442 ], [ -76.453182963695866, 8.347513561597893 ], [ -76.452179427171572, 8.347593930287632 ], [ -76.45150173179708, 8.347968386995408 ], [ -76.450099182163072, 8.347856204674253 ], [ -76.449014149380659, 8.348198846625404 ], [ -76.447472257152612, 8.348998345661608 ], [ -76.446527018546092, 8.349453886363523 ], [ -76.445478865266594, 8.349772889111021 ], [ -76.444932002646851, 8.350684327176682 ], [ -76.444111709298596, 8.351504621120309 ], [ -76.442334405254783, 8.353008494008227 ], [ -76.440876103967227, 8.354193363146557 ], [ -76.440418229114627, 8.35516634785057 ], [ -76.43958787293559, 8.355395132881318 ], [ -76.438863336207191, 8.353080106084343 ], [ -76.439213516855546, 8.350939454686486 ], [ -76.43938599364013, 8.349156011678735 ], [ -76.440093858084779, 8.346924918689476 ], [ -76.440624017957461, 8.345051034222251 ], [ -76.441782325577137, 8.34362057007951 ], [ -76.441599398296688, 8.342551546011403 ], [ -76.440520798241351, 8.341307496127413 ], [ -76.439532032309558, 8.340152256448135 ], [ -76.43932825960772, 8.339683435642629 ] ] ] } }
]
}
