{
"type": "FeatureCollection",
"name": "Las_Changas",
"crs": { "type": "name", "properties": { "name": "urn:ogc:def:crs:OGC:1.3:CRS84" } },
"features": [
{ "type": "Feature", "properties": { "nombre": "Las Changas", "area_ha": 420.527, "Shape_Leng": 9507.2122265100006, "Shape_Area": 3651186.63845 }, "geometry": { "type": "Polygon", "coordinates": [ [ [ -76.572076689580101, 8.551483727388574 ], [ -76.571987180887888, 8.551511970212278 ], [ -76.570162102663588, 8.550650566634248 ], [ -76.569457123625668, 8.550393170683842 ], [ -76.569971291590647, 8.54866328655773 ], [ -76.570181683737303, 8.547518986680631 ], [ -76.570608135603436, 8.546755868358536 ], [ -76.57038116900334, 8.545999140352567 ], [ -76.570020440500528, 8.545376659166388 ], [ -76.570062660066299, 8.544752543640955 ], [ -76.570016246931701, 8.544351625451752 ], [ -76.57032654852344, 8.543592721626137 ], [ -76.570054637869447, 8.542791609975465 ], [ -76.569961084513494, 8.541811505730122 ], [ -76.569822214360173, 8.540697882251028 ], [ -76.569684073507062, 8.539762525973474 ], [ -76.56959143350015, 8.539005254494691 ], [ -76.569765418579095, 8.537756661096685 ], [ -76.569806546933791, 8.536865145988738 ], [ -76.570474648777079, 8.536015658393119 ], [ -76.570651909696323, 8.535569266195987 ], [ -76.570469547384604, 8.53476779132604 ], [ -76.570780938348122, 8.534276287976869 ], [ -76.571272685384244, 8.534096025557325 ], [ -76.572347726224365, 8.534225369828533 ], [ -76.572618720943055, 8.53480364766892 ], [ -76.572890629060055, 8.535604757854896 ], [ -76.57316089637564, 8.536004767568246 ], [ -76.573607690267337, 8.535780116862952 ], [ -76.573830265926972, 8.535467242089712 ], [ -76.574635042379612, 8.535196570317332 ], [ -76.575664218082636, 8.535058685854596 ], [ -76.577453577363528, 8.534694873141859 ], [ -76.577097425605999, 8.535186561677424 ], [ -76.576381644298877, 8.535323174590088 ], [ -76.575934852880366, 8.535547827628461 ], [ -76.575578149317366, 8.535905815998772 ], [ -76.575356124308854, 8.536352392100584 ], [ -76.575536486655963, 8.536663629913466 ], [ -76.575581805617716, 8.536797147617616 ], [ -76.575854270605618, 8.537731954162812 ], [ -76.576122713053707, 8.537686295717613 ], [ -76.577601799139089, 8.538081383315095 ], [ -76.578992077474851, 8.538655096046339 ], [ -76.579665475643921, 8.539098025089066 ], [ -76.581058697538353, 8.540384791934223 ], [ -76.581554667176576, 8.541229545301617 ], [ -76.581557369965353, 8.5418853950996 ], [ -76.582788742694191, 8.542047756848969 ], [ -76.58426805919882, 8.54269793741117 ], [ -76.585911742658411, 8.543185571155364 ], [ -76.587137402180701, 8.543786523680399 ], [ -76.588377268701734, 8.542372847103501 ], [ -76.589774400628087, 8.542860482055323 ], [ -76.590349690859298, 8.543998292910901 ], [ -76.590618928277166, 8.546139376158072 ], [ -76.59098116611267, 8.547118361680861 ], [ -76.591074406637858, 8.548009317981689 ], [ -76.590091273510325, 8.548459027106519 ], [ -76.589197498867605, 8.548863800019504 ], [ -76.5877655361042, 8.549047944182476 ], [ -76.587014002126267, 8.55136851365461 ], [ -76.586974026054875, 8.55252742140887 ], [ -76.585768673652652, 8.553379137042675 ], [ -76.584843348333578, 8.554888605675997 ], [ -76.584103689784172, 8.556757806402786 ], [ -76.583610584878969, 8.558058114911452 ], [ -76.582377822368727, 8.558952074339119 ], [ -76.580569769184947, 8.559764763339865 ], [ -76.579337004490014, 8.55976476287068 ], [ -76.578432978818384, 8.558220653713182 ], [ -76.577090305740441, 8.555241866265524 ], [ -76.576639093571742, 8.554396926934565 ], [ -76.575963470262963, 8.553419199923823 ], [ -76.575422901361677, 8.55261919067323 ], [ -76.574839025504602, 8.552175894714329 ], [ -76.574165423759283, 8.551688393405541 ], [ -76.574164692187054, 8.55151012763684 ], [ -76.57362449549305, 8.550799246545024 ], [ -76.573549067175577, 8.55051859794667 ], [ -76.572758981007894, 8.550795835711156 ], [ -76.572075208325657, 8.551472006687167 ], [ -76.572076689580101, 8.551483727388574 ] ] ] } }
]
}
