{
"type": "FeatureCollection",
"name": "El_Aburrido",
"crs": { "type": "name", "properties": { "name": "urn:ogc:def:crs:OGC:1.3:CRS84" } },
"features": [
{ "type": "Feature", "properties": { "FID_Flujo": 15, "Nombre": "El Aburrido", "Area": 11.708471857, "Name": null, "Shape_Leng": 5376.4166590799996, "Shape_Area": 120374.319994, "FID_Domos": -1, "Shape_Le_1": 0.0, "Shape_Ar_1": 0.0, "Nombre_1": null }, "geometry": { "type": "Polygon", "coordinates": [ [ [ -76.467569011862153, 8.346289197811442, 0.0 ], [ -76.467302450276321, 8.346113372475049, 0.0 ], [ -76.467100509000431, 8.346161324200917, 0.0 ], [ -76.466938956878067, 8.346081404061891, 0.0 ], [ -76.466777403857392, 8.345825657551799, 0.0 ], [ -76.466535075224627, 8.345561917871203, 0.0 ], [ -76.465670769258836, 8.34505042400318, 0.0 ], [ -76.465073024878947, 8.344810661077462, 0.0 ], [ -76.464475280498988, 8.344538929465285, 0.0 ], [ -76.464127943301122, 8.344395071894667, 0.0 ], [ -76.463748294600805, 8.344307158365639, 0.0 ], [ -76.463037464004643, 8.34422723695844, 0.0 ], [ -76.462568961142992, 8.34409137141742, 0.0 ], [ -76.460888815117599, 8.343803655004836, 0.0 ], [ -76.460735340646238, 8.34375570210068, 0.0 ], [ -76.460363769597009, 8.343667788427711, 0.0 ], [ -76.460032586802882, 8.343507946224131, 0.0 ], [ -76.459249057347435, 8.342924520159496, 0.0 ], [ -76.459055194620902, 8.342780661105598, 0.0 ], [ -76.458885563949167, 8.34264479506156, 0.0 ], [ -76.458683623571616, 8.342468967195932, 0.0 ], [ -76.45850591524885, 8.342205226137958, 0.0 ], [ -76.45811011214478, 8.34180561856606, 0.0 ], [ -76.457900094116226, 8.341669751294182, 0.0 ], [ -76.457795084652759, 8.341589830236202, 0.0 ], [ -76.457560833671081, 8.341533884863802, 0.0 ], [ -76.457439668905522, 8.341597822431659, 0.0 ], [ -76.457488134811769, 8.341885540468697, 0.0 ], [ -76.457375047697283, 8.341901523958436, 0.0 ], [ -76.457111517925512, 8.342016347665698, 0.0 ], [ -76.457051943452484, 8.342125305189558, 0.0 ], [ -76.457189262621796, 8.342436999373376, 0.0 ], [ -76.457011555197312, 8.342508928081424, 0.0 ], [ -76.456817691572496, 8.342492943727683, 0.0 ], [ -76.456599595892854, 8.342429007195145, 0.0 ], [ -76.456429966119458, 8.342349085403731, 0.0 ], [ -76.456308801353956, 8.342149281742456, 0.0 ], [ -76.456163404533626, 8.341869556089454, 0.0 ], [ -76.456179559835675, 8.341613806821957, 0.0 ], [ -76.456179559835675, 8.341166244534492, 0.0 ], [ -76.456179559835675, 8.340862541547471, 0.0 ], [ -76.456236102494572, 8.340678721554657, 0.0 ], [ -76.456316879004973, 8.34057482275729, 0.0 ], [ -76.456494587327754, 8.340391002629085, 0.0 ], [ -76.456688450054259, 8.340199190190704, 0.0 ], [ -76.45677730421562, 8.340071314586876, 0.0 ], [ -76.456890390431809, 8.339871509761004, 0.0 ], [ -76.457108486111395, 8.339663711709346, 0.0 ], [ -76.457286194434161, 8.339639735892808, 0.0 ], [ -76.457690075189305, 8.339839540837165, 0.0 ], [ -76.457940481473045, 8.340079306813326, 0.0 ], [ -76.45780316230379, 8.340239150419512, 0.0 ], [ -76.457787007001755, 8.340414979288393, 0.0 ], [ -76.457851628209966, 8.34066273712611, 0.0 ], [ -76.458035123479817, 8.340669315237594, 0.0 ], [ -76.45835383047131, 8.34068074005093, 0.0 ], [ -76.458966340459554, 8.340702698196313, 0.0 ], [ -76.459184436139125, 8.340902502597245, 0.0 ], [ -76.459246641777625, 8.341073275599713, 0.0 ], [ -76.460357636798577, 8.341400229751033, 0.0 ], [ -76.46100190223207, 8.341589830236202, 0.0 ], [ -76.462447797275786, 8.341613806821957, 0.0 ], [ -76.463263637335331, 8.341398017497443, 0.0 ], [ -76.464224874215191, 8.341286127578442, 0.0 ], [ -76.464887239803431, 8.341254158770264, 0.0 ], [ -76.465404574185683, 8.341403101503195, 0.0 ], [ -76.465678846909924, 8.341429986293736, 0.0 ], [ -76.465895595116578, 8.341561673566956, 0.0 ], [ -76.466166906993678, 8.341591993604077, 0.0 ], [ -76.466648162339098, 8.341645774711862, 0.0 ], [ -76.466922801576018, 8.341901523958436, 0.0 ], [ -76.466825869763568, 8.341989438028785, 0.0 ], [ -76.466615851734957, 8.342061367708013, 0.0 ], [ -76.466284668940901, 8.341989438028785, 0.0 ], [ -76.465880788185743, 8.341861563899617, 0.0 ], [ -76.465541527740612, 8.341677743487946, 0.0 ], [ -76.465137646087157, 8.3415258926671, 0.0 ], [ -76.464709532378961, 8.341421994094906, 0.0 ], [ -76.464362194282799, 8.341421994094906, 0.0 ], [ -76.463820993460104, 8.341533884863802, 0.0 ], [ -76.463263637335331, 8.341669751294182, 0.0 ], [ -76.462883988635014, 8.341949477090163, 0.0 ], [ -76.462673970606389, 8.341949477090163, 0.0 ], [ -76.462407409020614, 8.341829595138574, 0.0 ], [ -76.461801586989637, 8.34182160294792, 0.0 ], [ -76.46124423086485, 8.34182160294792, 0.0 ], [ -76.460848426862427, 8.3418136107571, 0.0 ], [ -76.460428390805234, 8.3416617591002, 0.0 ], [ -76.460032586802882, 8.341493923878593, 0.0 ], [ -76.459320708771145, 8.341466737785195, 0.0 ], [ -76.459535767246763, 8.341669700631918, 0.0 ], [ -76.459578779480907, 8.341794096905192, 0.0 ], [ -76.459525841761234, 8.341898852192326, 0.0 ], [ -76.459128810660147, 8.341944681955018, 0.0 ], [ -76.458883973931123, 8.342019974902568, 0.0 ], [ -76.458850888080903, 8.342213116107583, 0.0 ], [ -76.458946838034748, 8.342491371423332, 0.0 ], [ -76.459522533266039, 8.342933305145017, 0.0 ], [ -76.460015514320915, 8.342982409157267, 0.0 ], [ -76.460319904861635, 8.343218106908154, 0.0 ], [ -76.46079965103749, 8.343574926744973, 0.0 ], [ -76.462841054554275, 8.344013585767522, 0.0 ], [ -76.46420419589569, 8.344334395812162, 0.0 ], [ -76.464674463048638, 8.344467089122764, 0.0 ], [ -76.465032636623775, 8.344666803606975, 0.0 ], [ -76.465345525227093, 8.344714551974228, 0.0 ], [ -76.465583116145012, 8.344843011780505, 0.0 ], [ -76.465848477581616, 8.344986487889146, 0.0 ], [ -76.466136448715645, 8.34495474336244, 0.0 ], [ -76.466598313027362, 8.345194013802539, 0.0 ], [ -76.466809614748527, 8.345303478835662, 0.0 ], [ -76.466922801576018, 8.345362115853156, 0.0 ], [ -76.467076276047308, 8.345673807454395, 0.0 ], [ -76.467140897255604, 8.345801681224543, 0.0 ], [ -76.467307886880391, 8.34576124338904, 0.0 ], [ -76.46754280620867, 8.345887903027043, 0.0 ], [ -76.467738641635549, 8.34599349091242, 0.0 ], [ -76.467746719286581, 8.346185300506095, 0.0 ], [ -76.467787107541753, 8.346409078394458, 0.0 ], [ -76.467770952239704, 8.346536951923799, 0.0 ], [ -76.467674020427268, 8.346504983545376, 0.0 ], [ -76.467569011862153, 8.346289197811442, 0.0 ] ] ] } }
]
}
