{
"type": "FeatureCollection",
"name": "Las_Changas",
"crs": { "type": "name", "properties": { "name": "urn:ogc:def:crs:OGC:1.3:CRS84" } },
"features": [
{ "type": "Feature", "properties": { "FID_Flujo": -1, "Nombre": "Las Changas", "Area": 0.02035002003, "Name": null, "Shape_Leng": 0.0, "Shape_Area": 0.0, "FID_Domos": 13, "Shape_Le_1": 72.6132112234, "Shape_Ar_1": 209.442003941, "Nombre_1": null }, "geometry": { "type": "Polygon", "coordinates": [ [ [ -76.575983239361747, 8.551502589987841, 0.0 ], [ -76.575965287429085, 8.551501406734502, 0.0 ], [ -76.575953318276277, 8.551501406734502, 0.0 ], [ -76.575939555187787, 8.551496081205947, 0.0 ], [ -76.575929980045174, 8.55149963096612, 0.0 ], [ -76.575916815234635, 8.551494305437538, 0.0 ], [ -76.575904846081812, 8.551494897064279, 0.0 ], [ -76.575889885539127, 8.551496672832682, 0.0 ], [ -76.575880311294796, 8.55149963096612, 0.0 ], [ -76.575871334430147, 8.551495488690955, 0.0 ], [ -76.575867743863938, 8.551491938042435, 0.0 ], [ -76.5758641532978, 8.5514872041405, 0.0 ], [ -76.57586834304027, 8.551484245118601, 0.0 ], [ -76.575870137874205, 8.551477143821373, 0.0 ], [ -76.575864752474061, 8.551473593172682, 0.0 ], [ -76.575860562731606, 8.551463533741504, 0.0 ], [ -76.575864752474061, 8.551458207324112, 0.0 ], [ -76.575872531884428, 8.551457615697373, 0.0 ], [ -76.575883303583041, 8.551457615697373, 0.0 ], [ -76.575887492427213, 8.551461757972946, 0.0 ], [ -76.575894673559532, 8.551462349599678, 0.0 ], [ -76.575905445258144, 8.551458798950847, 0.0 ], [ -76.575914421224454, 8.551458207324112, 0.0 ], [ -76.575916815234635, 8.551453473421756, 0.0 ], [ -76.575918610068612, 8.551445188870325, 0.0 ], [ -76.575923995468756, 8.55144045407944, 0.0 ], [ -76.575925192923052, 8.551425659856376, 0.0 ], [ -76.575928783489189, 8.551419742699965, 0.0 ], [ -76.575935964621593, 8.551418558558, 0.0 ], [ -76.575945538865895, 8.551412641401479, 0.0 ], [ -76.575950326886328, 8.551403764334088, 0.0 ], [ -76.57596169686289, 8.551394296527905, 0.0 ], [ -76.575958704574703, 8.551388378482697, 0.0 ], [ -76.575960499408609, 8.551381277183685, 0.0 ], [ -76.575967680541012, 8.551377134907236, 0.0 ], [ -76.575976058229344, 8.551377134907236, 0.0 ], [ -76.575982641083783, 8.551381277183685, 0.0 ], [ -76.575988625660202, 8.551384827833179, 0.0 ], [ -76.57599520851457, 8.551388970109544, 0.0 ], [ -76.576004184480936, 8.551388970109544, 0.0 ], [ -76.576016152735392, 8.551386603602097, 0.0 ], [ -76.576021539033846, 8.551393113274232, 0.0 ], [ -76.576029916722177, 8.551403172707264, 0.0 ], [ -76.576039490966494, 8.551420925953558, 0.0 ], [ -76.576047271275158, 8.551425659856376, 0.0 ], [ -76.576052058397352, 8.551419742699965, 0.0 ], [ -76.57605864125172, 8.551407314983432, 0.0 ], [ -76.576063428373914, 8.551408499125371, 0.0 ], [ -76.576069412051979, 8.551412049774671, 0.0 ], [ -76.576079585472598, 8.551422109207206, 0.0 ], [ -76.576084373493032, 8.551435128550089, 0.0 ], [ -76.576080782926894, 8.551447555377406, 0.0 ], [ -76.576071207784224, 8.551460574719421, 0.0 ], [ -76.576064026651864, 8.551471226665761, 0.0 ], [ -76.576050861841367, 8.551475960567897, 0.0 ], [ -76.576038892688544, 8.551481286985045, 0.0 ], [ -76.576028720166249, 8.551491346415752, 0.0 ], [ -76.576027522711968, 8.551496672832682, 0.0 ], [ -76.576032310732444, 8.551508508031274, 0.0 ], [ -76.576026924434004, 8.551515609327975, 0.0 ], [ -76.576014357901499, 8.551515609327975, 0.0 ], [ -76.576013759623464, 8.55150969128465, 0.0 ], [ -76.576005979314814, 8.551505549009597, 0.0 ], [ -76.57599520851457, 8.551504365756211, 0.0 ], [ -76.575983239361747, 8.551502589987841, 0.0 ] ] ] } }
]
}
