{
  "type": "FeatureCollection",
  "name": "volcanes",
  "crs": {
    "type": "name",
    "properties": {
      "name": "urn:ogc:def:crs:OGC:1.3:CRS84"
    }
  },
  "features": [
    {
      "type": "Feature",
      "properties": {
        "id": "el_aburrido",
        "nombre": "El Aburrido"
      },
      "geometry": {
        "type": "Point",
        "coordinates": [
          -76.45741918438897,
          8.34107209639557
        ]
      }
    },
    {
      "type": "Feature",
      "properties": {
        "id": "las_changas",
        "nombre": "Las Changas"
      },
      "geometry": {
        "type": "Point",
        "coordinates": [
          -76.57597367599595,
          8.551455484132257
        ]
      }
    }
  ]
}
